GOES 1 (SMS-C) [-]      
1 08366U 75100A   22091.49714404 -.00000208  00000+0  00000+0 0  9992
2 08366   8.4639 296.7237 0000705  15.4319 325.8531  1.00308391169644
GOES 2 [-]              
1 10061U 77048A   22091.49873524 -.00000263  00000+0  00000+0 0  9990
2 10061  10.0241 307.9208 0013350  26.3893 340.6193  0.99398234 30994
GOES 3 [-]              
1 10953U 78062A   22091.45801378 -.00000178  00000+0  00000+0 0  9996
2 10953  10.3422 312.3446 0003006  99.8787 118.7841  0.99365457113252
GOES 4 [-]              
1 11964U 80074A   22091.50318481 -.00000134  00000+0  00000+0 0  9991
2 11964  11.2919 316.1561 0034722  70.1170 265.4189  0.99228600112176
GOES 5 [-]              
1 12472U 81049A   22091.57757862 -.00000145  00000+0  00000+0 0  9998
2 12472  12.0888 327.4150 0001804  68.4452 259.7381  1.00340081107425
GOES 6 [-]              
1 14050U 83041A   22091.20350187 -.00000186  00000+0  00000+0 0  9990
2 14050  12.6264 332.6873 0003916 107.6174  86.9898  1.00324157200597
GOES 7 [-]              
1 17561U 87022A   22091.00535347 -.00000170  00000+0  00000+0 0  9997
2 17561  14.3072 349.1930 0007386  49.8344 142.9958  0.99908390111596
GOES 8 [-]              
1 23051U 94022A   22091.01189481 -.00000089  00000+0  00000+0 0  9990
2 23051  13.1124  24.7431 0008426  13.1748 179.0855  0.98906001108917
GOES 9 [-]              
1 23581U 95025A   22091.14236196 -.00000229  00000+0  00000+0 0  9998
2 23581  12.6040  25.0224 0006358  64.9444 108.4306  0.98801202 97561
GOES 10 [-]             
1 24786U 97019A   22091.42478793 -.00000009  00000+0  00000+0 0  9999
2 24786  11.3351  31.1303 0024448 201.2670   9.1971  0.99121512 90820
GOES 11 [-]             
1 26352U 00022A   22091.58489730 -.00000299  00000+0  00000+0 0  9999
2 26352   8.5225  59.9178 0002296 310.9831 176.4795  0.99045508 37240
GOES 12 [-]             
1 26871U 01031A   22091.51644053  .00000007  00000+0  00000+0 0  9996
2 26871   9.3815  48.6733 0009380 327.4233  33.7020  0.99137148 75523
EWS-G1 (GOES 13) [+]    
1 29155U 06018A   22091.52184806  .00000023  00000+0  00000+0 0  9998
2 29155   0.4007  96.8786 0001867 156.7625 185.5573  1.00273713 27954
GOES 14 [B]             
1 35491U 09033A   22091.57487358 -.00000105  00000+0  00000+0 0  9993
2 35491   0.1389  89.7104 0011766 133.9634  68.6770  1.00272184 46698
GOES 15 [B]             
1 36411U 10008A   22091.60846873  .00000043  00000+0  00000+0 0  9995
2 36411   0.1110 108.6373 0001387 313.7949 218.1557  1.00270037 44257
GOES 16 [+]             
1 41866U 16071A   22091.50514002 -.00000262  00000+0  00000+0 0  9990
2 41866   0.0682 289.2968 0000804 116.9993 250.1629  1.00272053 19697
GOES 17 [+]             
1 43226U 18022A   22091.60049003  .00000084  00000+0  00000+0 0  9996
2 43226   0.0464 300.3203 0000257  87.4656 241.0990  1.00272974 15007
GOES 18 [+]             
1 51850U 22021A   22091.56353832 -.00000197  00000+0  00000+0 0  9991
2 51850   0.0364 308.0950 0000291 190.0385 165.2522  1.00273549   382